NORAD_CAT_ID,OBJECT_NAME,OBJECT_TYPE,EPOCH,MEAN_MOTION,ECCENTRICITY,INCLINATION,RA_OF_ASC_NODE,ARG_OF_PERICENTER,MEAN_ANOMALY,BSTAR,MEAN_MOTION_DOT,MEAN_MOTION_DDOT,TLE_LINE0,TLE_LINE1,TLE_LINE2,SEMIMAJOR_AXIS,PERIOD,APOGEE,PERIGEE,DECAYED
56487.0,STARLINK-6196,PAYLOAD,2023-10-15 19:04:17,15.69933993,0.0003374,69.9986,160.8707,271.7964,88.2845,6.6086e-05,7.744e-05,0.0,0 STARLINK-6196,1 56487U 23064AR  23288.79465131  .00007744  00000-0  66086-4 0  9996,2 56487  69.9986 160.8707 0003374 271.7964  88.2845 15.69933993 25189,6737.223,91.724,361.361,356.815,0.0
56487.0,STARLINK-6196,PAYLOAD,2023-10-16 01:11:18,15.69921686,0.000304,69.9989,160.1534,265.8535,94.2313,5.9221e-06,4.99e-06,0.0,0 STARLINK-6196,1 56487U 23064AR  23289.04952102  .00000499  00000-0  59221-5 0  9998,2 56487  69.9989 160.1534 0003040 265.8535  94.2313 15.69921686 25229,6737.258,91.724,361.171,357.075,0.0
56487.0,STARLINK-6196,PAYLOAD,2023-10-16 08:50:04,15.69919348,0.0002846,69.9989,159.258,267.1493,92.9377,6.6569e-06,5.88e-06,0.0,0 STARLINK-6196,1 56487U 23064AR  23289.36810618  .00000588  00000-0  66569-5 0  9990,2 56487  69.9989 159.2580 0002846 267.1493  92.9377 15.69919348 24923,6737.265,91.724,361.047,357.212,0.0
56487.0,STARLINK-6196,PAYLOAD,2023-10-16 16:28:49,15.69928315,0.0003763,69.999,158.3626,262.599,97.4778,3.9264e-05,4.512e-05,0.0,0 STARLINK-6196,1 56487U 23064AR  23289.68668620  .00004512  00000-0  39264-4 0  9991,2 56487  69.9990 158.3626 0003763 262.5990  97.4778 15.69928315 24970,6737.239,91.724,361.639,356.569,0.0
56487.0,STARLINK-6196,PAYLOAD,2023-10-18 00:35:37,15.69931695,0.000372,69.9993,154.5998,265.985,94.0921,3.4663e-05,3.959e-05,0.0,0 STARLINK-6196,1 56487U 23064AR  23291.02473536  .00003959  00000-0  34663-4 0  9994,2 56487  69.9993 154.5998 0003720 265.9850  94.0921 15.69931695 25180,6737.229,91.724,361.601,356.588,0.0
56487.0,STARLINK-6196,PAYLOAD,2023-10-18 08:14:22,15.69923616,0.0003424,69.9983,153.7059,268.1525,91.9278,1.0509e-05,1.051e-05,0.0,0 STARLINK-6196,1 56487U 23064AR  23291.34332012  .00001051  00000-0  10509-4 0  9996,2 56487  69.9983 153.7059 0003424 268.1525  91.9278 15.69923616 25582,6737.253,91.724,361.424,356.811,0.0
56487.0,STARLINK-6196,PAYLOAD,2023-10-19 01:03:38,15.69938684,0.0003517,69.9982,151.7353,268.3783,91.701,6.7013e-05,7.857e-05,0.0,0 STARLINK-6196,1 56487U 23064AR  23292.04419967  .00007857  00000-0  67013-4 0  9991,2 56487  69.9982 151.7353 0003517 268.3783  91.7010 15.69938684 25692,6737.209,91.723,361.444,356.705,0.0
56487.0,STARLINK-6196,PAYLOAD,2023-10-19 14:49:25,15.69931739,0.0002896,69.9983,150.1233,273.4391,86.6474,4.5211e-05,5.228e-05,0.0,0 STARLINK-6196,1 56487U 23064AR  23292.61765349  .00005228  00000-0  45211-4 0  9998,2 56487  69.9983 150.1233 0002896 273.4391  86.6474 15.69931739 25437,6737.229,91.724,361.045,357.143,0.0
56487.0,STARLINK-6196,PAYLOAD,2023-10-19 20:56:25,15.69933458,0.0002269,70.0007,149.4076,273.6759,86.4177,2.6999e-05,3.036e-05,0.0,0 STARLINK-6196,1 56487U 23064AR  23292.87251979  .00003036  00000-0  26999-4 0  9992,2 56487  70.0007 149.4076 0002269 273.6759  86.4177 15.69933458 25828,6737.224,91.724,360.618,357.561,0.0
56487.0,STARLINK-6196,PAYLOAD,2023-10-19 22:28:11,15.69923912,0.0002758,70.0008,149.2274,271.6818,88.4061,6.0629e-05,7.083e-05,0.0,0 STARLINK-6196,1 56487U 23064AR  23292.93624044  .00007083  00000-0  60629-4 0  9990,2 56487  70.0008 149.2274 0002758 271.6818  88.4061 15.69923912 25484,6737.252,91.724,360.975,357.259,0.0
56487.0,STARLINK-6196,PAYLOAD,2023-10-19 23:59:55,15.69926998,0.0003551,69.9977,149.046,268.9431,91.1358,2.1346e-05,2.355e-05,0.0,0 STARLINK-6196,1 56487U 23064AR  23292.99995227  .00002355  00000-0  21346-4 0  9990,2 56487  69.9977 149.0460 0003551 268.9431  91.1358 15.69926998 25840,6737.243,91.724,361.5,356.715,0.0
56487.0,STARLINK-6196,PAYLOAD,2023-10-21 00:27:58,15.69925068,0.0003262,69.9986,146.1807,272.7123,87.37,2.205e-05,2.439e-05,0.0,0 STARLINK-6196,1 56487U 23064AR  23294.01942378  .00002439  00000-0  22050-4 0  9990,2 56487  69.9986 146.1807 0003262 272.7123  87.3700 15.69925068 26007,6737.248,91.724,361.311,356.916,0.0
56487.0,STARLINK-6196,PAYLOAD,2023-10-21 21:52:29,15.69921796,0.0003178,69.9993,143.672,266.7919,93.2913,1.1544e-06,-7.4e-07,0.0,0 STARLINK-6196,1 56487U 23064AR  23294.91145815 -.00000074  00000-0  11544-5 0  9991,2 56487  69.9993 143.6720 0003178 266.7919  93.2913 15.69921796 25794,6737.258,91.724,361.264,356.982,0.0
56487.0,STARLINK-6196,PAYLOAD,2023-10-21 23:24:15,15.69917219,0.0003279,69.9992,143.4932,266.7292,93.3529,-1.0204e-05,-1.439e-05,0.0,0 STARLINK-6196,1 56487U 23064AR  23294.97517503 -.00001439  00000-0 -10204-4 0  9992,2 56487  69.9992 143.4932 0003279 266.7292  93.3529 15.69917219 26152,6737.271,91.725,361.345,356.927,0.0
56487.0,STARLINK-6196,PAYLOAD,2023-10-22 07:03:06,15.69815056,0.0002229,69.9987,142.5981,296.5287,63.568,-0.0001692,-0.00020412,0.0,0 STARLINK-6196,1 56487U 23064AR  23295.29382864 -.00020412  00000-0 -16920-3 0  9990,2 56487  69.9987 142.5981 0002229 296.5287  63.5680 15.69815056 26208,6737.563,91.731,360.93,357.926,0.0
56487.0,STARLINK-6196,PAYLOAD,2023-10-22 17:45:17,15.69963404,0.0005754,70.0001,141.3428,251.454,108.6031,0.0001379,0.00016437,0.0,0 STARLINK-6196,1 56487U 23064AR  23295.73978792  .00016437  00000-0  13790-3 0  9992,2 56487  70.0001 141.3428 0005754 251.4540 108.6031 15.69963404 26278,6737.139,91.722,362.88,355.127,0.0
56487.0,STARLINK-6196,PAYLOAD,2023-10-22 22:18:00,15.73685743,0.0022965,69.9971,140.7996,301.9371,57.9593,0.0067722,0.01074098,0.0,0 STARLINK-6196,1 56487U 23064AR  23295.92916920  .01074098  00000-0  67722-2 0  9999,2 56487  69.9971 140.7996 0022965 301.9371  57.9593 15.73685743 25955,6726.511,91.505,363.823,332.928,0.0
56487.0,STARLINK-6196,PAYLOAD,2023-10-23 06:00:00,15.67633614,0.0003595,69.9991,139.9144,269.1411,88.8935,-0.0094762,-0.00943247,0.0,0 STARLINK-6196,1 56487U 23064AR  23296.25001157 -.00943247  00000-0 -94762-2 0  9999,2 56487  69.9991 139.9144 0003595 269.1411  88.8935 15.67633614 26351,6743.812,91.858,368.102,363.253,0.0
56487.0,STARLINK-6196,PAYLOAD,2023-10-23 22:00:00,15.66304344,0.0003415,69.9995,138.0482,271.5467,246.0727,-0.00938,-0.00889432,0.0,0 STARLINK-6196,1 56487U 23064AR  23296.91667824 -.00889432  00000-0 -93800-2 0  9998,2 56487  69.9995 138.0482 0003415 271.5467 246.0727 15.66304344 26462,6747.627,91.936,371.796,367.188,0.0
56487.0,STARLINK-6196,PAYLOAD,2023-10-24 14:00:01,15.65024517,0.0003561,69.9994,136.1858,264.2653,49.786,-0.010177,-0.00914324,0.0,0 STARLINK-6196,1 56487U 23064AR  23297.58334491 -.00914324  00000-0 -10177-1 0  9997,2 56487  69.9994 136.1858 0003561 264.2653  49.7860 15.65024517 26562,6751.305,92.011,375.574,370.766,0.0
56487.0,STARLINK-6196,PAYLOAD,2023-10-24 16:00:01,15.64882379,0.0003549,69.9992,135.9532,267.8347,155.6151,-0.010756,-0.0095663,0.0,0 STARLINK-6196,1 56487U 23064AR  23297.66668981 -.00956630  00000-0 -10756-1 0  9999,2 56487  69.9992 135.9532 0003549 267.8347 155.6151 15.64882379  6016,6751.714,92.02,375.975,371.183,0.0
56487.0,STARLINK-6196,PAYLOAD,2023-10-25 14:00:01,15.63069399,0.0003459,69.9989,133.3985,264.9441,277.9119,-0.011012,-0.00915404,0.0,0 STARLINK-6196,1 56487U 23064AR  23298.58334491 -.00915404  00000-0 -11012-1 0  9997,2 56487  69.9989 133.3985 0003459 264.9441 277.9119 15.63069399 26729,6756.934,92.126,381.136,376.462,0.0
56487.0,STARLINK-6196,PAYLOAD,2023-10-26 06:00:00,15.61754819,0.0003566,69.9983,131.5446,267.9797,63.516,-0.011814,-0.0093133,0.0,0 STARLINK-6196,1 56487U 23064AR  23299.25001157 -.00931330  00000-0 -11814-1 0  9998,2 56487  69.9983 131.5446 0003566 267.9797  63.5160 15.61754819 26823,6760.725,92.204,385.001,380.179,0.0
56487.0,STARLINK-6196,PAYLOAD,2023-10-26 14:00:01,15.61117771,0.0003581,69.9983,130.6193,267.166,137.4552,-0.012082,-0.00929395,0.0,0 STARLINK-6196,1 56487U 23064AR  23299.58334491 -.00929395  00000-0 -12082-1 0  9990,2 56487  69.9983 130.6193 0003581 267.1660 137.4552 15.61117771  6048,6762.564,92.242,386.851,382.007,0.0
56487.0,STARLINK-6196,PAYLOAD,2023-10-26 16:00:00,15.60960101,0.000345,69.9983,130.3879,268.4809,244.3052,-0.012397,-0.00946098,0.0,0 STARLINK-6196,1 56487U 23064AR  23299.66667824 -.00946098  00000-0 -12397-1 0  9996,2 56487  69.9983 130.3879 0003450 268.4809 244.3052 15.60960101 26890,6763.02,92.251,387.218,382.551,0.0
56487.0,STARLINK-6196,PAYLOAD,2023-10-30 05:39:57,15.56277158,0.0005543,69.9961,120.5355,294.3024,65.7586,-0.0030747,-0.00211609,0.0,0 STARLINK-6196,1 56487U 23064AR  23303.23608118 -.00211609  00000-0 -30747-2 0  9999,2 56487  69.9961 120.5355 0005543 294.3024  65.7586 15.56277158 27445,6776.58,92.529,402.201,394.688,0.0
56487.0,STARLINK-6196,PAYLOAD,2023-10-30 22:00:00,15.52598517,0.0003351,69.9981,118.6696,275.7857,288.4819,-0.015522,-0.008732,0.0,0 STARLINK-6196,1 56487U 23064AR  23303.91667824 -.00873200  00000-0 -15522-1 0  9997,2 56487  69.9981 118.6696 0003351 275.7857 288.4819 15.52598517 27551,6787.279,92.748,411.419,406.87,0.0
56487.0,STARLINK-6196,PAYLOAD,2023-10-31 14:00:01,15.51344491,0.0003517,69.9982,116.845,270.3596,57.4791,-0.017754,-0.00960563,0.0,0 STARLINK-6196,1 56487U 23064AR  23304.58334491 -.00960563  00000-0 -17754-1 0  9990,2 56487  69.9982 116.8450 0003517 270.3596  57.4791 15.51344491 27658,6790.937,92.823,415.19,410.413,0.0
56487.0,STARLINK-6196,PAYLOAD,2023-10-31 22:00:01,15.50643698,0.0003461,69.998,115.9338,278.5631,109.9839,-0.016661,-0.00873675,0.0,0 STARLINK-6196,1 56487U 23064AR  23304.91668981 -.00873675  00000-0 -16661-1 0  9994,2 56487  69.9980 115.9338 0003461 278.5631 109.9839 15.50643698  5998,6792.982,92.865,417.199,412.496,0.0
56487.0,STARLINK-6196,PAYLOAD,2023-11-01 14:00:01,15.49381951,0.0003391,69.9987,114.1147,274.0706,233.3585,-0.018895,-0.00953875,0.0,0 STARLINK-6196,1 56487U 23064AR  23305.58335648 -.00953875  00000-0 -18895-1 0  9991,2 56487  69.9987 114.1147 0003391 274.0706 233.3585 15.49381951 27814,6796.67,92.94,420.84,416.23,0.0
